{
  "type": "FeatureCollection",
  "features": [
    {
      "type": "Feature",
      "properties": {
        "norad_id": 36585,
        "name": "GPS BIIF-1  (PRN 25)",
        "group": "gnss",
        "lat": -37.20377040099531,
        "lon": 69.04144203281177,
        "alt_km": 20508.003767484708,
        "timestamp": "2025-12-15T07:02:37.860651+00:00",
        "meta_object_name": "GPS BIIF-1  (PRN 25)",
        "meta_object_id": "2010-022A",
        "meta_epoch": "2025-12-14T05:35:49.434720",
        "meta_mean_motion": 2.00553343,
        "meta_eccentricity": 0.01261835,
        "meta_inclination": 54.2999,
        "meta_ra_of_asc_node": 216.0137,
        "meta_arg_of_pericenter": 65.0918,
        "meta_mean_anomaly": 117.1041,
        "meta_ephemeris_type": 0,
        "meta_classification_type": "U",
        "meta_norad_cat_id": 36585,
        "meta_element_set_no": 999,
        "meta_rev_at_epoch": 11388,
        "meta_bstar": 0,
        "meta_mean_motion_dot": 4.9e-07,
        "meta_mean_motion_ddot": 0,
        "tle_line1": "1 36585U 10022A   25348.23321105  .00000049  00000+0  00000+0 0  9992",
        "tle_line2": "2 36585  54.2999 216.0137 0126183  65.0918 117.1041  2.00553343113888"
      },
      "geometry": {
        "type": "Point",
        "coordinates": [
          69.04144203281177,
          -37.20377040099531
        ]
      }
    },
    {
      "type": "Feature",
      "properties": {
        "norad_id": 36828,
        "name": "BEIDOU-2 IGSO-1 (C06)",
        "group": "gnss",
        "lat": 36.69273267844143,
        "lon": -47.85275311310799,
        "alt_km": 35755.08998562762,
        "timestamp": "2025-12-15T07:02:37.860663+00:00",
        "meta_object_name": "BEIDOU-2 IGSO-1 (C06)",
        "meta_object_id": "2010-036A",
        "meta_epoch": "2025-12-14T21:38:21.623424",
        "meta_mean_motion": 1.00275796,
        "meta_eccentricity": 0.00512569,
        "meta_inclination": 54.2866,
        "meta_ra_of_asc_node": 164.6279,
        "meta_arg_of_pericenter": 215.8888,
        "meta_mean_anomaly": 135.7931,
        "meta_ephemeris_type": 0,
        "meta_classification_type": "U",
        "meta_norad_cat_id": 36828,
        "meta_element_set_no": 999,
        "meta_rev_at_epoch": 5624,
        "meta_bstar": 0,
        "meta_mean_motion_dot": -2.4e-07,
        "meta_mean_motion_ddot": 0,
        "tle_line1": "1 36828U 10036A   25348.90163916 -.00000024  00000+0  00000+0 0  9999",
        "tle_line2": "2 36828  54.2866 164.6279 0051256 215.8888 135.7931  1.00275796 56247"
      },
      "geometry": {
        "type": "Point",
        "coordinates": [
          -47.85275311310799,
          36.69273267844143
        ]
      }
    },
    {
      "type": "Feature",
      "properties": {
        "norad_id": 37210,
        "name": "BEIDOU-2 G4 (C04)",
        "group": "gnss",
        "lat": -3.137982801860771,
        "lon": -9.934128802334689,
        "alt_km": 35785.1111582929,
        "timestamp": "2025-12-15T07:02:37.860675+00:00",
        "meta_object_name": "BEIDOU-2 G4 (C04)",
        "meta_object_id": "2010-057A",
        "meta_epoch": "2025-12-14T21:01:39.976032",
        "meta_mean_motion": 1.00271828,
        "meta_eccentricity": 0.0010669,
        "meta_inclination": 3.1901,
        "meta_ra_of_asc_node": 69.9323,
        "meta_arg_of_pericenter": 191.8324,
        "meta_mean_anomaly": 297.5165,
        "meta_ephemeris_type": 0,
        "meta_classification_type": "U",
        "meta_norad_cat_id": 37210,
        "meta_element_set_no": 999,
        "meta_rev_at_epoch": 5544,
        "meta_bstar": 0,
        "meta_mean_motion_dot": -9.3e-07,
        "meta_mean_motion_ddot": 0,
        "tle_line1": "1 37210U 10057A   25348.87615713 -.00000093  00000+0  00000+0 0  9997",
        "tle_line2": "2 37210   3.1901  69.9323 0010669 191.8324 297.5165  1.00271828 55443"
      },
      "geometry": {
        "type": "Point",
        "coordinates": [
          -9.934128802334689,
          -3.137982801860771
        ]
      }
    },
    {
      "type": "Feature",
      "properties": {
        "norad_id": 37256,
        "name": "BEIDOU-2 IGSO-2 (C07)",
        "group": "gnss",
        "lat": 17.276381557453632,
        "lon": -69.60142727301772,
        "alt_km": 35980.13026720034,
        "timestamp": "2025-12-15T07:02:37.860687+00:00",
        "meta_object_name": "BEIDOU-2 IGSO-2 (C07)",
        "meta_object_id": "2010-068A",
        "meta_epoch": "2025-12-14T17:43:21.584928",
        "meta_mean_motion": 1.00286059,
        "meta_eccentricity": 0.00486596,
        "meta_inclination": 47.8819,
        "meta_ra_of_asc_node": 274.1236,
        "meta_arg_of_pericenter": 216.4437,
        "meta_mean_anomaly": 326.6295,
        "meta_ephemeris_type": 0,
        "meta_classification_type": "U",
        "meta_norad_cat_id": 37256,
        "meta_element_set_no": 999,
        "meta_rev_at_epoch": 5494,
        "meta_bstar": 0,
        "meta_mean_motion_dot": -2.25e-06,
        "meta_mean_motion_ddot": 0,
        "tle_line1": "1 37256U 10068A   25348.73844427 -.00000225  00000+0  00000+0 0  9997",
        "tle_line2": "2 37256  47.8819 274.1236 0048659 216.4437 326.6295  1.00286059 54942"
      },
      "geometry": {
        "type": "Point",
        "coordinates": [
          -69.60142727301772,
          17.276381557453632
        ]
      }
    },
    {
      "type": "Feature",
      "properties": {
        "norad_id": 37384,
        "name": "BEIDOU-2 IGSO-3 (C08)",
        "group": "gnss",
        "lat": -59.00866524957046,
        "lon": -76.55232999024766,
        "alt_km": 35736.75432534643,
        "timestamp": "2025-12-15T07:02:37.860700+00:00",
        "meta_object_name": "BEIDOU-2 IGSO-3 (C08)",
        "meta_object_id": "2011-013A",
        "meta_epoch": "2025-12-14T15:18:38.168064",
        "meta_mean_motion": 1.00270472,
        "meta_eccentricity": 0.00354241,
        "meta_inclination": 62.1463,
        "meta_ra_of_asc_node": 41.8972,
        "meta_arg_of_pericenter": 187.6123,
        "meta_mean_anomaly": 191.2166,
        "meta_ephemeris_type": 0,
        "meta_classification_type": "U",
        "meta_norad_cat_id": 37384,
        "meta_element_set_no": 999,
        "meta_rev_at_epoch": 5381,
        "meta_bstar": 0,
        "meta_mean_motion_dot": -1.94e-06,
        "meta_mean_motion_ddot": 0,
        "tle_line1": "1 37384U 11013A   25348.63794176 -.00000194  00000+0  00000+0 0  9999",
        "tle_line2": "2 37384  62.1463  41.8972 0035424 187.6123 191.2166  1.00270472 53812"
      },
      "geometry": {
        "type": "Point",
        "coordinates": [
          -76.55232999024766,
          -59.00866524957046
        ]
      }
    },
    {
      "type": "Feature",
      "properties": {
        "norad_id": 37605,
        "name": "GSAT-8 (GAGAN/PRN 127)",
        "group": "gnss",
        "lat": 0.523905681605788,
        "lon": -115.10144754525854,
        "alt_km": 35752.29470982155,
        "timestamp": "2025-12-15T07:02:37.860712+00:00",
        "meta_object_name": "GSAT-8 (GAGAN/PRN 127)",
        "meta_object_id": "2011-022A",
        "meta_epoch": "2025-12-14T22:42:38.818368",
        "meta_mean_motion": 1.00272348,
        "meta_eccentricity": 0.00086342,
        "meta_inclination": 1.6554,
        "meta_ra_of_asc_node": 84.1736,
        "meta_arg_of_pericenter": 184.3119,
        "meta_mean_anomaly": 211.1142,
        "meta_ephemeris_type": 0,
        "meta_classification_type": "U",
        "meta_norad_cat_id": 37605,
        "meta_element_set_no": 999,
        "meta_rev_at_epoch": 5137,
        "meta_bstar": 0,
        "meta_mean_motion_dot": 1.04e-06,
        "meta_mean_motion_ddot": 0,
        "tle_line1": "1 37605U 11022A   25348.94628262  .00000104  00000+0  00000+0 0  9991",
        "tle_line2": "2 37605   1.6554  84.1736 0008634 184.3119 211.1142  1.00272348 51376"
      },
      "geometry": {
        "type": "Point",
        "coordinates": [
          -115.10144754525854,
          0.523905681605788
        ]
      }
    },
    {
      "type": "Feature",
      "properties": {
        "norad_id": 37763,
        "name": "BEIDOU-2 IGSO-4 (C09)",
        "group": "gnss",
        "lat": 47.32020096743218,
        "lon": -63.28555706380078,
        "alt_km": 36034.243919672575,
        "timestamp": "2025-12-15T07:02:37.860725+00:00",
        "meta_object_name": "BEIDOU-2 IGSO-4 (C09)",
        "meta_object_id": "2011-038A",
        "meta_epoch": "2025-12-10T12:04:03.489024",
        "meta_mean_motion": 1.00284678,
        "meta_eccentricity": 0.01490344,
        "meta_inclination": 54.5829,
        "meta_ra_of_asc_node": 167.3658,
        "meta_arg_of_pericenter": 230.2355,
        "meta_mean_anomaly": 317.2212,
        "meta_ephemeris_type": 0,
        "meta_classification_type": "U",
        "meta_norad_cat_id": 37763,
        "meta_element_set_no": 999,
        "meta_rev_at_epoch": 5275,
        "meta_bstar": 0,
        "meta_mean_motion_dot": 3.6e-07,
        "meta_mean_motion_ddot": 0,
        "tle_line1": "1 37763U 11038A   25344.50281816  .00000036  00000+0  00000+0 0  9995",
        "tle_line2": "2 37763  54.5829 167.3658 0149034 230.2355 317.2212  1.00284678 52751"
      },
      "geometry": {
        "type": "Point",
        "coordinates": [
          -63.28555706380078,
          47.32020096743218
        ]
      }
    }
  ]
}